satname,norad_id,inclination_deg,eccentricity,mean_motion_rev_per_day,perigee_km,apogee_km,l1,l2
STARLINK-1132,45044,53.0553,0.0001226,15.06430354,546.2694925343312,547.9675651900079,1 45044U 20006A   25249.60700847  .00011661  00000+0  79980-3 0  9999,2 45044  53.0553  12.9973 0001226  71.4502 288.6620 15.06430354308993
STARLINK-1131,45047,53.0554,0.000124,15.06409879,546.3225409248134,548.0400198583502,1 45047U 20006D   25249.71581796  .00004369  00000+0  31192-3 0  9994,2 45047  53.0554  33.0470 0001240  96.5127 263.6003 15.06409879308727
STARLINK-1134,45048,53.0471,0.0004806,15.22510825,494.96532779685185,501.5749303293078,1 45048U 20006E   25249.62163667  .00083833  00000+0  35435-2 0  9994,2 45048  53.0471  18.4195 0004806 324.4990  35.5686 15.22510825308926
STARLINK-1156,45054,53.0566,0.0001324,15.06406327,546.2752530807365,548.1090802440694,1 45054U 20006L   25249.68626292  .00001685  00000+0  13195-3 0  9990,2 45054  53.0566  32.6444 0001324  87.7565 272.3575 15.06406327308721
STARLINK-1159,45057,53.0555,0.0001432,15.0640503,546.2044340497268,548.1878494615257,1 45057U 20006P   25249.70101061  .00001972  00000+0  15119-3 0  9995,2 45057  53.0555  32.5757 0001432  97.9582 262.1570 15.06405030308733
STARLINK-1166,45060,53.0551,0.0001086,15.06437869,546.3434170895471,547.8475775879679,1 45060U 20006S   25249.71207383  .00013408  00000+0  91638-3 0  9991,2 45060  53.0551  32.5277 0001086  80.2482 279.8630 15.06437869308736
STARLINK-1169,45061,53.0561,0.0001287,15.06397745,546.327175948235,548.1097624460072,1 45061U 20006T   25249.71944448  .00000087  00000+0  24708-4 0  9996,2 45061  53.0561  32.4947 0001287  86.9893 273.1243 15.06397745308738
STARLINK-1171,45062,53.0565,0.0001437,15.06419414,546.1568934258667,548.1472215009817,1 45062U 20006U   25249.70469132  .00002660  00000+0  19731-3 0  9996,2 45062  53.0565  32.5572 0001437  87.1715 272.9438 15.06419414308732
STARLINK-1133,45064,53.0559,0.0001308,15.06413739,546.2636201184032,548.0752802857751,1 45064U 20006W   25249.65125011  .00002148  00000+0  16299-3 0  9994,2 45064  53.0559  12.7964 0001308  87.3251 272.7887 15.06413739309007
STARLINK-1150,45067,53.0458,0.0003899,15.88300905,304.4397388952939,309.65284482628795,1 45067U 20006Z   25250.00002315  .00328497  00000+0  11256-2 0  9994,2 45067  53.0458 325.7084 0003899 302.2419 109.9649 15.88300905  5954
STARLINK-1167,45071,53.0552,0.0001505,15.06426945,546.0867240955295,548.1712291544936,1 45071U 20006AD  25249.61071821  .00012091  00000+0  82863-3 0  9995,2 45071  53.0552  12.9837 0001505  63.6096 296.5048 15.06426945308995
STARLINK-1168,45072,53.0553,0.0001212,15.06436712,546.2597046223827,547.9383818392616,1 45072U 20006AE  25249.61439284  .00012681  00000+0  86783-3 0  9997,2 45072  53.0553  12.9651 0001212  85.3725 274.7403 15.06436712308992
STARLINK-1172,45074,53.0558,0.0001364,15.06421671,546.2005317567791,548.0897487246366,1 45074U 20006AG  25249.62545181  .00011375  00000+0  78082-3 0  9996,2 45074  53.0558  12.9156 0001364  68.4294 291.6841 15.06421671308992
STARLINK-1153,45080,53.0549,0.0001262,15.06431717,546.2403848863396,547.9883183274851,1 45080U 20006AN  25249.60335170  .00017508  00000+0  11903-2 0  9998,2 45080  53.0549  13.0159 0001262  98.5368 261.5764 15.06431717308999
STARLINK-1151,45081,53.0559,0.0001342,15.06416399,546.2319227895514,548.0906728526861,1 45081U 20006AP  25249.65494528  .00006348  00000+0  44449-3 0  9999,2 45081  53.0559  12.8562 0001342  81.9152 278.1990 15.06416399309009
STARLINK-1190,45083,53.053,0.0006323,15.70450892,353.3484234712796,361.86644588337276,1 45083U 20006AR  25249.56383065  .00111924  00000+0  88764-3 0  9999,2 45083  53.0530 352.3348 0006323 343.4566  16.6244 15.70450892309287
STARLINK-1173,45084,53.0485,0.001019,15.76989439,332.1312158884102,345.8206920886396,1 45084U 20006AS  25250.00002315  .00195958  00000+0  11571-2 0  9997,2 45084  53.0485 314.9055 0010190 315.9415 188.9474 15.76989439  5922
STARLINK-1179,45085,53.0432,0.000631,15.87290124,305.66391756825396,314.1042001445312,1 45085U 20006AT  25250.00002315  .00331856  00000+0  11940-2 0  9997,2 45085  53.0432 306.7264 0006310 323.2162 283.9427 15.87290124  6008
STARLINK-1185,45087,53.0548,0.000132,15.06407764,546.2736196300502,548.1019053673499,1 45087U 20006AV  25249.56463320 -.00000530  00000+0 -16683-4 0  9990,2 45087  53.0548 353.1876 0001320  75.1085 285.0050 15.06407764309277
STARLINK-1183,45088,53.0559,8.02e-05,15.06429559,546.5655596530924,547.6763710307332,1 45088U 20006AW  25249.58674248  .00013868  00000+0  94734-3 0  9994,2 45088  53.0559 353.0886 0000802  95.5634 264.5447 15.06429559309278
STARLINK-1176,45090,53.0505,0.0006002,15.74703482,341.4395782462243,349.5106021993279,1 45090U 20006AY  25250.00002315  .00219537  00000+0  14312-2 0  9990,2 45090  53.0505 312.3736 0006002 291.4279 132.3200 15.74703482  5978
STARLINK-1142,45093,53.0405,0.0005992,15.48224577,417.84514537385803,425.9943333703204,1 45093U 20006BB  25249.84872411  .00109783  00000+0  20287-2 0  9994,2 45093  53.0405 303.6539 0005992   7.4352 352.6743 15.48224577309990
STARLINK-1146,45094,53.0499,0.0006932,15.87819143,303.7633564498328,313.0335692155031,1 45094U 20006BC  25249.91668981  .00299130  00000+0  10524-2 0  9997,2 45094  53.0499 308.3151 0006932 315.6059  95.6300 15.87819143  6044
STARLINK-1147,45095,53.0444,0.000967,15.85984285,307.0837971486908,320.02552882490727,1 45095U 20006BD  25249.91668981  .00219531  00000+0  85194-3 0  9991,2 45095  53.0444 310.8302 0009670 326.3146 216.7519 15.85984285  5886
STARLINK-1152,45096,53.0545,0.0004012,15.20076723,502.8472157344195,508.3707335044537,1 45096U 20006BE  25249.55989247  .00024393  00000+0  11268-2 0  9993,2 45096  53.0545 341.4146 0004012  13.0913 347.0185 15.20076723309435
STARLINK-1184,45098,53.0557,0.0001107,15.06424783,546.3689749769037,547.9022303311322,1 45098U 20006BG  25249.60149053  .00012429  00000+0  85126-3 0  9996,2 45098  53.0557 353.0215 0001107  88.4416 271.6700 15.06424783309276
STARLINK-1193,45100,53.0569,0.0001666,15.06393079,546.0790032840205,548.3865364913481,1 45100U 20006BJ  25249.59780453 -.00004799  00000+0 -30353-3 0  9998,2 45100  53.0569 353.0411 0001666  92.9066 267.2114 15.06393079309275
STARLINK-1143,45179,53.0569,0.0004928,15.31828161,466.98304226377604,473.73291891664576,1 45179U 20012B   25249.92922966  .00094242  00000+0  29976-2 0  9993,2 45179  53.0569 126.6484 0004928 101.8798 258.2755 15.31828161307497
STARLINK-1200,45181,53.0395,0.0005017,16.13220852,234.70302381456986,241.3416781073256,1 45181U 20012D   25248.32687897  .00990429  62219-3  83003-3 0  9998,2 45181  53.0395 110.3219 0005017 264.1024  95.9439 16.13220852307576
STARLINK-1201,45182,53.0377,0.0002274,15.98071612,278.25536306744743,281.2833788849666,1 45182U 20012E   25249.91668981  .00454064  97466-4  97063-3 0  9992,2 45182  53.0377  82.8538 0002274  87.1673 343.2304 15.98071612  6069
STARLINK-1202,45183,53.0561,0.0001575,15.06386627,546.1617957071576,548.3432934136945,1 45183U 20012F   25249.92587434  .00001149  00000+0  96043-4 0  9990,2 45183  53.0561 151.5673 0001575  87.5917 272.5253 15.06386627307141
STARLINK-1216,45185,53.0536,0.0002122,15.06409129,545.7140259825255,548.6531320362565,1 45185U 20012H   25249.91848668  .00002233  00000+0  16872-3 0  9996,2 45185  53.0536 151.5998 0002122  86.2217 273.9015 15.06409129307080
STARLINK-1224,45186,53.0372,0.000314,16.00024986,272.2605628368865,276.43832432345516,1 45186U 20012J   25249.91668981  .00460339  10250-3  88078-3 0  9999,2 45186  53.0372 104.0676 0003140  87.1643 310.9908 16.00024986  6065
STARLINK-1225,45187,53.0529,0.0001623,15.06394478,546.104495306914,548.3524689424103,1 45187U 20012K   25249.93692079  .00000388  00000+0  44956-4 0  9997,2 45187  53.0529 151.5179 0001623  88.1296 271.9879 15.06394478307130
STARLINK-1228,45188,53.0336,0.0005163,16.06276292,253.65236949941573,260.5038926437601,1 45188U 20012L   25248.34024567  .00651435  22146-3  85656-3 0  9998,2 45188  53.0336  49.5810 0005163 332.9230  27.1532 16.06276292308374
STARLINK-1230,45189,53.0555,0.0001497,15.06391165,546.2019073404272,548.2753648058679,1 45189U 20012M   25249.94061030 -.00000632  00000+0 -23570-4 0  9990,2 45189  53.0555 151.4992 0001497  99.0517 261.0642 15.06391165304369
STARLINK-1234,45190,53.0535,0.000137,15.06417306,546.2097525626068,548.1072835345531,1 45190U 20012N   25249.89270717  .00021458  00000+0  14544-2 0  9996,2 45190  53.0535 111.7167 0001370  74.8233 285.2907 15.06417306307594
STARLINK-1237,45192,53.0477,0.0001176,16.04742393,260.5248560611162,262.086452973459,1 45192U 20012Q   25248.29511272  .00572392  16653-3  82866-3 0  9991,2 45192  53.0477 111.2591 0001176 159.0248 201.0832 16.04742393307569
STARLINK-1240,45194,53.0393,0.0005943,15.92080978,292.49364668799444,300.42707310996957,1 45194U 20012S   25249.91668981  .00318169  49378-4  94050-3 0  9992,2 45194  53.0393 104.6557 0005943  84.5466 162.7355 15.92080978  6059
STARLINK-1244,45196,53.0375,0.0003106,15.96754231,281.3617964698451,285.49996243656096,1 45196U 20012U   25249.91668981  .00425794  85288-4  97927-3 0  9993,2 45196  53.0375 104.4045 0003106  92.3475 347.8028 15.96754231  5851
STARLINK-1269,45197,53.0552,0.0001452,15.06405226,546.1899827623047,548.2010993322247,1 45197U 20012V   25249.95164602  .00004943  00000+0  35042-3 0  9992,2 45197  53.0552 151.4549 0001452 104.3375 255.7775 15.06405226307113
STARLINK-1154,45198,53.0547,0.0001436,15.06397935,546.2234059113371,548.2123678348471,1 45198U 20012W   25249.94245549  .00002725  00000+0  20180-3 0  9995,2 45198  53.0547 131.4915 0001436  88.1507 271.9647 15.06397935307363
STARLINK-1199,45201,53.0536,0.0001311,15.06395191,546.3183817416439,548.1342119980836,1 45201U 20012Z   25249.88717074  .00003812  00000+0  27470-3 0  9997,2 45201  53.0536 131.7417 0001311  92.2560 267.8579 15.06395191307419
